[{"OBJECT_NAME":"ION SCV-004","OBJECT_ID":"2022-002K","EPOCH":"2026-03-09T16:32:03.244416","MEAN_MOTION":15.29369331,"ECCENTRICITY":0.00072157,"INCLINATION":97.2961,"RA_OF_ASC_NODE":128.2294,"ARG_OF_PERICENTER":1.6783,"MEAN_ANOMALY":358.448,"EPHEMERIS_TYPE":0,"CLASSIFICATION_TYPE":"U","NORAD_CAT_ID":50993,"ELEMENT_SET_NO":999,"REV_AT_EPOCH":23008,"BSTAR":0.00023198467,"MEAN_MOTION_DOT":6.538e-5,"MEAN_MOTION_DDOT":0},{"OBJECT_NAME":"STARLINK-31913","OBJECT_ID":"2024-084P","EPOCH":"2026-03-09T06:51:18.903744","MEAN_MOTION":15.2758233,"ECCENTRICITY":0.00019261,"INCLINATION":43.0063,"RA_OF_ASC_NODE":40.4201,"ARG_OF_PERICENTER":269.9979,"MEAN_ANOMALY":90.0652,"EPHEMERIS_TYPE":0,"CLASSIFICATION_TYPE":"U","NORAD_CAT_ID":59667,"ELEMENT_SET_NO":999,"REV_AT_EPOCH":10435,"BSTAR":1.5055039e-5,"MEAN_MOTION_DOT":1.52e-6,"MEAN_MOTION_DDOT":0}]
